0 FENGYUN 1C DEB
1 30114U 99025RT  13281.55696979  .00000163  00000-0  12018-3 0   609
2 30114 099.0449 290.3430 0083434 024.5733 092.0273 14.07345154345653
0 FENGYUN 1C DEB
1 30114U 99025RT  13283.83339356  .00000073  00000-0  67791-4 0   615
2 30114 099.0445 292.6216 0083346 018.2373 105.3773 14.07347995345971
0 FENGYUN 1C DEB
1 30114U 99025RT  13286.02432360  .00000048  00000-0  53711-4 0   628
2 30114 099.0441 294.8146 0083246 012.1220 045.6148 14.07348817346287
0 FENGYUN 1C DEB
1 30114U 99025RT  13288.59534774  .00000197  00000-0  13991-3 0   635
2 30114 099.0438 297.3880 0083104 004.8913 111.6482 14.07349214346643
0 FENGYUN 1C DEB
1 30114U 99025RT  13291.51747881  .00000381  00000-0  24608-3 0   649
2 30114 099.0440 300.3123 0082968 356.6649 156.5758 14.07349358347051
0 FENGYUN 1C DEB
1 30114U 99025RT  13293.57258331  .00000476  00000-0  30062-3 0   651
2 30114 099.0442 302.3688 0082876 350.9066 128.7026 14.07350690347341
